QIANFAN-97              
1 66039U 25233G   25338.51891432  .00000489  00000+0  35635-3 0  9998
2 66039  88.9964  63.0468 0017797  70.3547 289.9548 13.94530649  6830
QIANFAN-98              
1 66040U 25233H   25338.57297617  .00000154  00000+0  83823-4 0  9993
2 66040  88.9963  63.0002 0016780  67.6608 292.6352 14.06836596  6864
QIANFAN-99              
1 66041U 25233J   25338.51767227  .00000677  00000+0  50194-3 0  9991
2 66041  88.9943  63.0447 0017594  68.5296 291.7754 13.93938403  6831
QIANFAN-100             
1 66042U 25233K   25338.65300946  .00000790  00000+0  48665-3 0  9994
2 66042  88.9967  62.9937 0017520  70.0859 290.2208 14.04433147  6872
QIANFAN-101             
1 66043U 25233L   25338.67052490  .00000583  00000+0  23497-3 0  9991
2 66043  88.9966  62.9591 0016700  66.1045 294.1896 14.26668844  6896
QIANFAN-102             
1 66044U 25233M   25338.62763987  .00000396  00000+0  27636-3 0  9998
2 66044  88.9963  63.0265 0017032  69.4763 290.8240 13.96550931  6851
QIANFAN-103             
1 66045U 25233N   25337.95618132  .00000668  00000+0  49160-3 0  9993
2 66045  88.9959  63.1129 0017444  68.5122 291.7912 13.94384508  6751
QIANFAN-104             
1 66046U 25233P   25337.19517084  .00000388  00000+0  25986-3 0  9993
2 66046  88.9963  63.1843 0016548  75.6641 284.6373 13.98852158  6655
